NORAD_CAT_ID,OBJECT_NAME,OBJECT_TYPE,EPOCH,MEAN_MOTION,ECCENTRICITY,INCLINATION,RA_OF_ASC_NODE,ARG_OF_PERICENTER,MEAN_ANOMALY,BSTAR,MEAN_MOTION_DOT,MEAN_MOTION_DDOT,TLE_LINE0,TLE_LINE1,TLE_LINE2,SEMIMAJOR_AXIS,PERIOD,APOGEE,PERIGEE,DECAYED
52673.0,STARLINK-3976,PAYLOAD,2023-01-12 17:18:29,15.08827263,0.0003359,53.2198,285.5185,34.7766,325.3445,-0.0001068,-1.988e-05,0.0,0 STARLINK-3976,1 52673U 22053T   23012.72117586 -.00001988  00000-0 -10680-3 0  9996,2 52673  53.2198 285.5185 0003359  34.7766 325.3445 15.08827263 36704,6917.919,95.438,542.1080000000002,537.461,0.0
52673.0,STARLINK-3976,PAYLOAD,2023-01-12 22:04:39,15.08819931,0.0002692,53.2189,284.6287,25.401,334.7114,-0.00014758,-2.635e-05,0.0,0 STARLINK-3976,1 52673U 22053T   23012.91990178 -.00002635  00000-0 -14758-3 0  9993,2 52673  53.2189 284.6287 0002692  25.4010 334.7114 15.08819931 37166,6917.941999999999,95.439,541.669,537.944,0.0
52673.0,STARLINK-3976,PAYLOAD,2023-01-13 10:47:43,15.08834619,0.0002599,53.2179,282.2498,28.3205,331.7928,-8.0573e-05,-1.57e-05,0.0,0 STARLINK-3976,1 52673U 22053T   23013.44980603 -.00001570  00000-0 -80573-4 0  9990,2 52673  53.2179 282.2498 0002599  28.3205 331.7928 15.08834619 36818,6917.897,95.438,541.56,537.964,0.0
52673.0,STARLINK-3976,PAYLOAD,2023-01-13 20:20:01,15.08843879,0.0002542,53.2173,280.4657,29.9212,330.1925,9.0518e-05,1.153e-05,0.0,0 STARLINK-3976,1 52673U 22053T   23013.84724367  .00001153  00000-0  90518-4 0  9992,2 52673  53.2173 280.4657 0002542  29.9212 330.1925 15.08843879 37305,6917.869000000001,95.437,541.492,537.975,0.0
52673.0,STARLINK-3976,PAYLOAD,2023-01-14 02:41:34,15.08863384,0.0002319,53.2163,279.2761,33.87,326.244,0.0015,0.00023681,0.0,0 STARLINK-3976,1 52673U 22053T   23014.11220550  .00023681  00000-0  15000-2 0  9999,2 52673  53.2163 279.2761 0002319  33.8700 326.2440 15.08863384 36911,6917.809,95.436,541.278,538.07,0.0
52673.0,STARLINK-3976,PAYLOAD,2023-01-15 02:32:22,15.0884238,0.0002271,53.2164,274.8158,29.6859,330.4262,0.0018362,0.00029058,0.0,0 STARLINK-3976,1 52673U 22053T   23015.10581888  .00029058  00000-0  18362-2 0  9991,2 52673  53.2164 274.8158 0002271  29.6859 330.4262 15.08842380 37067,6917.8730000000005,95.437,541.309,538.1669999999999,0.0
52673.0,STARLINK-3976,PAYLOAD,2023-01-15 10:29:18,15.08820132,0.0002495,53.2157,273.3284,57.0376,303.0856,0.0027541,0.00043793,0.0,0 STARLINK-3976,1 52673U 22053T   23015.43702348  .00043793  00000-0  27541-2 0  9994,2 52673  53.2157 273.3284 0002495  57.0376 303.0856 15.08820132 37112,6917.941,95.439,541.5319999999999,538.08,0.0
52673.0,STARLINK-3976,PAYLOAD,2023-01-15 12:04:41,15.08826648,0.0002041999999999,53.2144,273.0323,48.3393,311.7774,0.0026068,0.00041429,0.0,0 STARLINK-3976,1 52673U 22053T   23015.50326176  .00041429  00000-0  26068-2 0  9990,2 52673  53.2144 273.0323 0002042  48.3393 311.7774 15.08826648 37550,6917.920999999999,95.438,541.1990000000001,538.374,0.0
52673.0,STARLINK-3976,PAYLOAD,2023-01-15 21:37:00,15.08861406,0.0001824,53.2145,271.2476,48.8786,311.2363,0.0020074999999999,0.00031825,0.0,0 STARLINK-3976,1 52673U 22053T   23015.90069947  .00031825  00000-0  20075-2 0  9995,2 52673  53.2145 271.2476 0001824  48.8786 311.2363 15.08861406 37615,6917.815,95.436,540.942,538.418,0.0
52673.0,STARLINK-3976,PAYLOAD,2023-01-15 23:12:23,15.08863063,0.000186,53.2144,270.9505,48.61,311.5051,0.0018236,0.00028872,0.0,0 STARLINK-3976,1 52673U 22053T   23015.96693844  .00028872  00000-0  18236-2 0  9994,2 52673  53.2144 270.9505 0001860  48.6100 311.5051 15.08863063 37192,6917.81,95.436,540.962,538.388,0.0
52673.0,STARLINK-3976,PAYLOAD,2023-01-16 16:41:38,15.08841367,0.0001583,53.2144,267.6779,76.0881,284.0288,0.0012644,0.00019893,0.0,0 STARLINK-3976,1 52673U 22053T   23016.69558373  .00019893  00000-0  12644-2 0  9992,2 52673  53.2144 267.6779 0001583  76.0881 284.0288 15.08841367 37303,6917.876,95.437,540.836,538.646,0.0
52673.0,STARLINK-3976,PAYLOAD,2023-01-17 02:13:57,15.08822564,0.0001652,53.2152,265.894,60.3548,299.7609,0.0010263,0.00016076,0.0,0 STARLINK-3976,1 52673U 22053T   23017.09303085  .00016076  00000-0  10263-2 0  9990,2 52673  53.2152 265.8940 0001652  60.3548 299.7609 15.08822564 37369,6917.934,95.439,540.942,538.656,0.0
52673.0,STARLINK-3976,PAYLOAD,2023-01-17 21:18:35,15.08840657,0.0001675,53.2147,262.3253,64.3296,295.7869,0.00087499,0.00013665,0.0,0 STARLINK-3976,1 52673U 22053T   23017.88791555  .00013665  00000-0  87499-3 0  9997,2 52673  53.2147 262.3253 0001675  64.3296 295.7869 15.08840657 37919,6917.878000000001,95.438,540.9019999999999,538.585,0.0
52673.0,STARLINK-3976,PAYLOAD,2023-01-17 22:53:58,15.08844969,0.0001685,53.2151,262.0274,67.2235,292.8935,0.00097944,0.00015336,0.0,0 STARLINK-3976,1 52673U 22053T   23017.95415492  .00015336  00000-0  97944-3 0  9991,2 52673  53.2151 262.0274 0001685  67.2235 292.8935 15.08844969 37923,6917.865,95.437,540.896,538.565,0.0
52673.0,STARLINK-3976,PAYLOAD,2023-01-18 19:33:59,15.08851331,0.0001496,53.2148,258.1604,84.0378,276.0785,0.00057201,8.83e-05,0.0,0 STARLINK-3976,1 52673U 22053T   23018.81527118  .00008830  00000-0  57201-3 0  9999,2 52673  53.2148 258.1604 0001496  84.0378 276.0785 15.08851331 37622,6917.846,95.437,540.746,538.6759999999999,0.0
52673.0,STARLINK-3976,PAYLOAD,2023-01-18 21:09:22,15.08852559,0.0001571,53.2153,257.8649,89.7623,270.3549,0.00052487,8.078e-05,0.0,0 STARLINK-3976,1 52673U 22053T   23018.88151034  .00008078  00000-0  52487-3 0  9991,2 52673  53.2153 257.8649 0001571  89.7623 270.3549 15.08852559 38069,6917.842,95.437,540.794,538.62,0.0
52673.0,STARLINK-3976,PAYLOAD,2023-01-18 22:44:45,15.08860707,0.0001554,53.215,257.5673,70.0479,290.068,0.00075037,0.00011681,0.0,0 STARLINK-3976,1 52673U 22053T   23018.94774941  .00011681  00000-0  75037-3 0  9996,2 52673  53.2150 257.5673 0001554  70.0479 290.0680 15.08860707 38073,6917.816999999999,95.436,540.757,538.607,0.0
52673.0,STARLINK-3976,PAYLOAD,2023-01-19 14:38:37,15.08844375,0.0001724,53.215,254.5961,73.6915,286.4267,0.00030477,4.566e-05,0.0,0 STARLINK-3976,1 52673U 22053T   23019.61015243  .00004566  00000-0  30477-3 0  9997,2 52673  53.2150 254.5961 0001724  73.6915 286.4267 15.08844375 37749,6917.866999999999,95.437,540.925,538.539,0.0
52673.0,STARLINK-3976,PAYLOAD,2023-01-20 08:07:51,15.08837984,0.000136,53.2137,251.3228,94.3589,265.7558,9.9296e-05,1.293e-05,0.0,0 STARLINK-3976,1 52673U 22053T   23020.33879381  .00001293  00000-0  99296-4 0  9998,2 52673  53.2137 251.3228 0001360  94.3589 265.7558 15.08837984 37851,6917.887,95.438,540.692,538.811,0.0
52673.0,STARLINK-3976,PAYLOAD,2023-01-22 07:49:25,15.08855119,0.0001445,53.2144,242.401,90.6196,269.4962,0.00022566,3.307e-05,0.0,0 STARLINK-3976,1 52673U 22053T   23022.32598496  .00003307  00000-0  22566-3 0  9997,2 52673  53.2144 242.4010 0001445  90.6196 269.4962 15.08855119 38150,6917.834,95.437,540.6990000000001,538.7,0.0
52673.0,STARLINK-3976,PAYLOAD,2023-01-23 07:40:11,15.08845806,0.0001529,53.2134,237.9411,78.0789,282.0374,-1.1625999999999998e-05,-4.73e-06,0.0,0 STARLINK-3976,1 52673U 22053T   23023.31958178 -.00000473  00000-0 -11626-4 0  9993,2 52673  53.2134 237.9411 0001529  78.0789 282.0374 15.08845806 38301,6917.863,95.437,540.785,538.67,0.0
52673.0,STARLINK-3976,PAYLOAD,2023-01-23 18:47:54,15.08829154,0.0001315,53.2134,235.8591,83.15799999999999,276.9562,-0.00024206,-4.137e-05,0.0,0 STARLINK-3976,1 52673U 22053T   23023.78326825 -.00004137  00000-0 -24206-3 0  9990,2 52673  53.2134 235.8591 0001315  83.1580 276.9562 15.08829154 38372,6917.914000000001,95.438,540.688,538.869,0.0
52673.0,STARLINK-3976,PAYLOAD,2023-01-24 20:14:05,15.0884159,0.0001303,53.2136,231.1008,72.2936,287.8199,0.00077159,0.00012014,0.0,0 STARLINK-3976,1 52673U 22053T   23024.84311519  .00012014  00000-0  77159-3 0  9998,2 52673  53.2136 231.1008 0001303  72.2936 287.8199 15.08841590 38530,6917.876,95.437,540.6419999999999,538.839,0.0
52673.0,STARLINK-3976,PAYLOAD,2023-01-25 13:43:18,15.08930425,0.0005579,53.214,227.8295,120.2163,239.9382,0.0029566999999999,0.00047213,0.0,0 STARLINK-3976,1 52673U 22053T   23025.57173890  .00047213  00000-0  29567-2 0  9995,2 52673  53.2140 227.8295 0005579 120.2163 239.9382 15.08930425 39078,6917.604,95.432,543.328,535.61,0.0
52673.0,STARLINK-3976,PAYLOAD,2023-01-25 20:04:50,15.08867909,0.000156,53.2145,226.64,84.4241,275.6929,2.4669e-05,1.05e-06,0.0,0 STARLINK-3976,1 52673U 22053T   23025.83669436  .00000105  00000-0  24669-4 0  9999,2 52673  53.2145 226.6400 0001560  84.4241 275.6929 15.08867909 38688,6917.795,95.436,540.739,538.581,0.0
52673.0,STARLINK-3976,PAYLOAD,2023-01-25 21:40:13,15.08858786,0.0001317,53.2139,226.3422,73.6478,286.4659,-0.0003457,-5.788e-05,0.0,0 STARLINK-3976,1 52673U 22053T   23025.90293564 -.00005788  00000-0 -34570-3 0  9997,2 52673  53.2139 226.3422 0001317  73.6478 286.4659 15.08858786 38698,6917.823,95.436,540.599,538.7769999999999,0.0
52673.0,STARLINK-3976,PAYLOAD,2023-01-26 13:34:04,15.08847398,0.0001363,53.214,223.368,73.821,286.2932,-0.00029807,-5.03e-05,0.0,0 STARLINK-3976,1 52673U 22053T   23026.56533414 -.00005030  00000-0 -29807-3 0  9998,2 52673  53.2140 223.3680 0001363  73.8210 286.2932 15.08847398 39229,6917.858,95.437,540.6659999999999,538.78,0.0
52673.0,STARLINK-3976,PAYLOAD,2023-01-27 11:49:29,15.08831296,0.0001305,53.2137,219.2061,73.5924,286.5211,-0.00053298,-8.758e-05,0.0,0 STARLINK-3976,1 52673U 22053T   23027.49269990 -.00008758  00000-0 -53298-3 0  9997,2 52673  53.2137 219.2061 0001305  73.5924 286.5211 15.08831296 38937,6917.906999999999,95.438,540.675,538.869,0.0
52673.0,STARLINK-3976,PAYLOAD,2023-01-27 19:46:25,15.08838846,0.0001192,53.2141,217.7191,72.8517,287.2605,-0.00067436,-0.00011004,0.0,0 STARLINK-3976,1 52673U 22053T   23027.82390150 -.00011004  00000-0 -67436-3 0  9994,2 52673  53.2141 217.7191 0001192  72.8517 287.2605 15.08838846 39410,6917.884,95.438,540.5740000000001,538.924,0.0
